{
    "links": {
        "self": "http://www.neowsapp.com/rest/v1/neo/3835819?api_key=iIulBulltgU6a56xZRHN4H3l9WmuAYTsLGpBGhQ2"
    },
    "id": "3835819",
    "neo_reference_id": "3835819",
    "name": "(2018 UR2)",
    "designation": "2018 UR2",
    "nasa_jpl_url": "http://ssd.jpl.nasa.gov/sbdb.cgi?sstr=3835819",
    "absolute_magnitude_h": 20.1,
    "estimated_diameter": {
        "kilometers": {
            "estimated_diameter_min": 0.2538370294,
            "estimated_diameter_max": 0.5675968529
        },
        "meters": {
            "estimated_diameter_min": 253.8370293645,
            "estimated_diameter_max": 567.5968528656
        },
        "miles": {
            "estimated_diameter_min": 0.1577269688,
            "estimated_diameter_max": 0.3526882241
        },
        "feet": {
            "estimated_diameter_min": 832.7986794202,
            "estimated_diameter_max": 1862.1944587557
        }
    },
    "is_potentially_hazardous_asteroid": false,
    "close_approach_data": [
        {
            "close_approach_date": "2018-11-04",
            "close_approach_date_full": "2018-Nov-04 09:50",
            "epoch_date_close_approach": 1541325000000,
            "relative_velocity": {
                "kilometers_per_second": "21.2038517219",
                "kilometers_per_hour": "76333.8661986982",
                "miles_per_hour": "47430.89591663"
            },
            "miss_distance": {
                "astronomical": "0.0857572972",
                "lunar": "33.3595886108",
                "kilometers": "12829108.998076964",
                "miles": "7971638.6816075432"
            },
            "orbiting_body": "Earth"
        }
    ],
    "orbital_data": {
        "orbit_id": "17",
        "orbit_determination_date": "2020-09-11 07:41:02",
        "first_observation_date": "2018-10-26",
        "last_observation_date": "2018-11-21",
        "data_arc_in_days": 26,
        "observations_used": 154,
        "orbit_uncertainty": "7",
        "minimum_orbit_intersection": ".0860876",
        "jupiter_tisserand_invariant": "3.726",
        "epoch_osculation": "2459000.5",
        "eccentricity": ".4061711844896543",
        "semi_major_axis": "1.809131292561591",
        "inclination": "37.94188873081817",
        "ascending_node_longitude": "42.58369225737148",
        "orbital_period": "888.7989961203685",
        "perihelion_distance": "1.07431429256455",
        "perihelion_argument": "351.9754202137058",
        "aphelion_distance": "2.543948292558632",
        "perihelion_time": "2459308.259323200368",
        "mean_anomaly": "235.3448678095403",
        "mean_motion": ".4050409615350711",
        "equinox": "J2000",
        "orbit_class": {
            "orbit_class_type": "AMO",
            "orbit_class_description": "Near-Earth asteroid orbits similar to that of 1221 Amor",
            "orbit_class_range": "1.017 AU < q (perihelion) < 1.3 AU"
        }
    },
    "is_sentry_object": false
}